NORAD_CAT_ID,OBJECT_NAME,OBJECT_TYPE,EPOCH,MEAN_MOTION,ECCENTRICITY,INCLINATION,RA_OF_ASC_NODE,ARG_OF_PERICENTER,MEAN_ANOMALY,BSTAR,MEAN_MOTION_DOT,MEAN_MOTION_DDOT,TLE_LINE0,TLE_LINE1,TLE_LINE2,SEMIMAJOR_AXIS,PERIOD,APOGEE,PERIGEE,DECAYED
54776.0,STARLINK-5470,PAYLOAD,2023-05-19 19:35:46,15.08846108,0.0001156,53.2173,324.558,89.7569,270.3556,0.00027592,4.107e-05,0.0,0 STARLINK-5470,1 54776U 22175U   23139.81651020  .00004107  00000-0  27592-3 0  9997,2 54776  53.2173 324.5580 0001156  89.7569 270.3556 15.08846108 25204,6917.862,95.437,540.526,538.927,0.0
54776.0,STARLINK-5470,PAYLOAD,2023-05-20 17:51:10,15.08849577,0.0001161,53.2159,320.3968,85.2895,274.823,0.00020999,3.057e-05,0.0,0 STARLINK-5470,1 54776U 22175U   23140.74386778  .00003057  00000-0  20999-3 0  9993,2 54776  53.2159 320.3968 0001161  85.2895 274.8230 15.08849577 23187,6917.851,95.437,540.519,538.913,0.0
54776.0,STARLINK-5470,PAYLOAD,2023-05-20 19:26:33,15.08853435,0.0001107,53.2164,320.0985,86.7716,273.3403,0.0002779,4.139e-05,0.0,0 STARLINK-5470,1 54776U 22175U   23140.81010582  .00004139  00000-0  27790-3 0  9996,2 54776  53.2164 320.0985 0001107  86.7716 273.3403 15.08853435 25352,6917.839,95.437,540.47,538.939,0.0
54776.0,STARLINK-5470,PAYLOAD,2023-05-21 11:20:25,15.08836748,0.0001887,53.2163,317.1249,80.8226,279.298,4.0362e-05,3.54e-06,0.0,0 STARLINK-5470,1 54776U 22175U   23141.47251487  .00000354  00000-0  40362-4 0  9996,2 54776  53.2163 317.1249 0001887  80.8226 279.2980 15.08836748 25451,6917.89,95.438,541.061,538.45,0.0
54776.0,STARLINK-5470,PAYLOAD,2023-05-21 17:41:58,15.08823144,9.78e-05,53.2165,315.9355,83.1177,276.9926,-0.00020169,-3.495e-05,0.0,0 STARLINK-5470,1 54776U 22175U   23141.73747981 -.00003495  00000-0 -20169-3 0  9997,2 54776  53.2165 315.9355 0000978  83.1177 276.9926 15.08823144 23333,6917.932,95.439,540.473,539.12,0.0
54776.0,STARLINK-5470,PAYLOAD,2023-05-21 20:52:44,15.08830563,0.0001085,53.2167,315.3401,81.7449,278.3666,-3.4437e-05,-8.36e-06,0.0,0 STARLINK-5470,1 54776U 22175U   23141.86995869 -.00000836  00000-0 -34437-4 0  9991,2 54776  53.2167 315.3401 0001085  81.7449 278.3666 15.08830563 25519,6917.909,95.438,540.525,539.024,0.0
54776.0,STARLINK-5470,PAYLOAD,2023-05-22 11:11:12,15.08847934,0.0001042,53.2169,312.6634,76.8796,283.2313,0.00085977,0.00013425,0.0,0 STARLINK-5470,1 54776U 22175U   23142.46611930  .00013425  00000-0  85977-3 0  9992,2 54776  53.2169 312.6634 0001042  76.8796 283.2313 15.08847934 23446,6917.856,95.437,540.442,539.0,0.0
54776.0,STARLINK-5470,PAYLOAD,2023-05-22 17:32:45,15.08857668,0.0001077,53.2168,311.4739,72.0717,288.0392,0.0013049,0.0002055,0.0,0 STARLINK-5470,1 54776U 22175U   23142.73107892  .00020550  00000-0  13049-2 0  9996,2 54776  53.2168 311.4739 0001077  72.0717 288.0392 15.08857668 25646,6917.826,95.436,540.436,538.946,0.0
54776.0,STARLINK-5470,PAYLOAD,2023-05-23 04:40:26,15.0885729,0.0001045,53.2168,309.3924,68.9055,291.2049,0.00071454,0.00011108,0.0,0 STARLINK-5470,1 54776U 22175U   23143.19475605  .00011108  00000-0  71454-3 0  9991,2 54776  53.2168 309.3924 0001045  68.9055 291.2049 15.08857290 23556,6917.828,95.436,540.415,538.97,0.0
54776.0,STARLINK-5470,PAYLOAD,2023-05-23 17:23:32,15.08850749,0.0001418,53.2173,307.013,88.7167,271.3987,0.00039694,6.037e-05,0.0,0 STARLINK-5470,1 54776U 22175U   23143.72467656  .00006037  00000-0  39694-3 0  9992,2 54776  53.2173 307.0130 0001418  88.7167 271.3987 15.08850749 23635,6917.848,95.437,540.693,538.732,0.0
54776.0,STARLINK-5470,PAYLOAD,2023-05-23 20:34:18,15.08851184,0.0001054,53.2174,306.4184,84.5711,275.5402,0.00057323,8.85e-05,0.0,0 STARLINK-5470,1 54776U 22175U   23143.85715558  .00008850  00000-0  57323-3 0  9997,2 54776  53.2174 306.4184 0001054  84.5711 275.5402 15.08851184 25817,6917.846,95.437,540.44,538.982,0.0
54776.0,STARLINK-5470,PAYLOAD,2023-05-24 10:52:46,15.08841757,0.0001288,53.2179,303.7384,99.6956,260.4182,0.00028381,4.232e-05,0.0,0 STARLINK-5470,1 54776U 22175U   23144.45331841  .00004232  00000-0  28381-3 0  9995,2 54776  53.2179 303.7384 0001288  99.6956 260.4182 15.08841757 23744,6917.875,95.437,540.631,538.849,0.0
54776.0,STARLINK-5470,PAYLOAD,2023-05-24 15:38:55,15.08844695,0.0001417,53.2184,302.8478,94.9164,265.199,-3.8768e-05,-9.05e-06,0.0,0 STARLINK-5470,1 54776U 22175U   23144.65203656 -.00000905  00000-0 -38768-4 0  9995,2 54776  53.2184 302.8478 0001417  94.9164 265.1990 15.08844695 25933,6917.866,95.437,540.711,538.751,0.0
54776.0,STARLINK-5470,PAYLOAD,2023-05-25 13:54:19,15.08843981,0.0001142,53.2178,298.6854,94.5687,265.5436,0.0001503,2.105e-05,0.0,0 STARLINK-5470,1 54776U 22175U   23145.57939687  .00002105  00000-0  15030-3 0  9995,2 54776  53.2178 298.6854 0001142  94.5687 265.5436 15.08843981 26079,6917.868,95.437,540.523,538.943,0.0
54776.0,STARLINK-5470,PAYLOAD,2023-05-25 17:05:06,15.08846528,0.0001127,53.2179,298.0904,93.9447,266.1674,0.00017231,2.456e-05,0.0,0 STARLINK-5470,1 54776U 22175U   23145.71187523  .00002456  00000-0  17231-3 0  9999,2 54776  53.2179 298.0904 0001127  93.9447 266.1674 15.08846528 23933,6917.86,95.437,540.505,538.946,0.0
54776.0,STARLINK-5470,PAYLOAD,2023-05-26 13:45:06,15.08845494,0.0001157,53.2187,294.2288,103.8821,256.23,0.00012595,1.718e-05,0.0,0 STARLINK-5470,1 54776U 22175U   23146.57299290  .00001718  00000-0  12595-3 0  9997,2 54776  53.2187 294.2288 0001157 103.8821 256.2300 15.08845494 26227,6917.864,95.437,540.529,538.928,0.0
54776.0,STARLINK-5470,PAYLOAD,2023-05-26 15:20:29,15.08846593,0.0001153,53.2186,293.9315,102.5201,257.592,0.00013682,1.891e-05,0.0,0 STARLINK-5470,1 54776U 22175U   23146.63923213  .00001891  00000-0  13682-3 0  9993,2 54776  53.2186 293.9315 0001153 102.5201 257.5920 15.08846593 26231,6917.86,95.437,540.523,538.928,0.0
54776.0,STARLINK-5470,PAYLOAD,2023-05-27 02:28:11,15.08845387,0.0001105,53.2185,291.851,87.2065,272.9054,7.5652e-05,9.17e-06,0.0,0 STARLINK-5470,1 54776U 22175U   23147.10291147  .00000917  00000-0  75652-4 0  9994,2 54776  53.2185 291.8510 0001105  87.2065 272.9054 15.08845387 24145,6917.864,95.437,540.493,538.964,0.0
54776.0,STARLINK-5470,PAYLOAD,2023-05-27 10:25:07,15.08833497,0.0001589,53.22,290.3686,112.1098,248.0063,-0.000109,-2.022e-05,0.0,0 STARLINK-5470,1 54776U 22175U   23147.43411821 -.00002022  00000-0 -10900-3 0  9998,2 54776  53.2200 290.3686 0001589 112.1098 248.0063 15.08833497 24199,6917.9,95.438,540.865,538.666,0.0
54776.0,STARLINK-5470,PAYLOAD,2023-05-27 16:46:41,15.08830228,0.0001201,53.2201,289.1754,110.7159,249.3962,-4.4376e-05,-9.94e-06,0.0,0 STARLINK-5470,1 54776U 22175U   23147.69908754 -.00000994  00000-0 -44376-4 0  9993,2 54776  53.2201 289.1754 0001201 110.7159 249.3962 15.08830228 24231,6917.91,95.438,540.606,538.944,0.0
54776.0,STARLINK-5470,PAYLOAD,2023-05-28 02:18:59,15.08833133,0.0001064,53.2197,287.3904,102.5554,257.5557,-4.1295e-06,-3.53e-06,0.0,0 STARLINK-5470,1 54776U 22175U   23148.09652656 -.00000353  00000-0 -41295-5 0  9992,2 54776  53.2197 287.3904 0001064 102.5554 257.5557 15.08833133 26452,6917.901,95.438,540.502,539.03,0.0
54776.0,STARLINK-5470,PAYLOAD,2023-05-28 16:37:27,15.08847072,9.69e-05,53.2171,284.7128,106.8567,253.2531,5.5365e-05,5.94e-06,0.0,0 STARLINK-5470,1 54776U 22175U   23148.69267633  .00000594  00000-0  55365-4 0  9992,2 54776  53.2171 284.7128 0000969 106.8567 253.2531 15.08847072 24389,6917.859,95.437,540.394,539.053,0.0
54776.0,STARLINK-5470,PAYLOAD,2023-05-29 08:31:19,15.08840825,9.07e-05,53.2164,281.7396,80.736,279.3735,0.00034915,5.273e-05,0.0,0 STARLINK-5470,1 54776U 22175U   23149.35508361  .00005273  00000-0  34915-3 0  9998,2 54776  53.2164 281.7396 0000907  80.7360 279.3735 15.08840825 24483,6917.878,95.438,540.37,539.115,0.0
54776.0,STARLINK-5470,PAYLOAD,2023-05-29 14:52:51,15.08844837,9e-05,53.2163,280.55,80.051,280.0584,0.00032114,4.828e-05,0.0,0 STARLINK-5470,1 54776U 22175U   23149.62004221  .00004828  00000-0  32114-3 0  9998,2 54776  53.2163 280.5500 0000900  80.0510 280.0584 15.08844837 26681,6917.866,95.437,540.353,539.108,0.0
54776.0,STARLINK-5470,PAYLOAD,2023-05-29 16:28:14,15.08847353,9.02e-05,53.2164,280.2526,79.7876,280.3218,0.00036537,5.533e-05,0.0,0 STARLINK-5470,1 54776U 22175U   23149.68628142  .00005533  00000-0  36537-3 0  9995,2 54776  53.2164 280.2526 0000902  79.7876 280.3218 15.08847353 26693,6917.858,95.437,540.347,539.099,0.0
54776.0,STARLINK-5470,PAYLOAD,2023-05-30 02:00:33,15.08846245,9.14e-05,53.2163,278.4686,77.7401,282.3693,0.00025112,3.712e-05,0.0,0 STARLINK-5470,1 54776U 22175U   23150.08372114  .00003712  00000-0  25112-3 0  9990,2 54776  53.2163 278.4686 0000914  77.7401 282.3693 15.08846245 26758,6917.861,95.437,540.359,539.094,0.0
54776.0,STARLINK-5470,PAYLOAD,2023-05-30 14:43:38,15.0884013,9.59e-05,53.2165,276.0902,76.642,283.4679,3.9377e-05,3.39e-06,0.0,0 STARLINK-5470,1 54776U 22175U   23150.61364312  .00000339  00000-0  39377-4 0  9991,2 54776  53.2165 276.0902 0000959  76.6420 283.4679 15.08840130 24675,6917.88,95.438,540.408,539.082,0.0
54776.0,STARLINK-5470,PAYLOAD,2023-05-31 12:59:02,15.08845451,0.0001101,53.2182,271.9276,75.3824,284.7291,0.00012728,1.739e-05,0.0,0 STARLINK-5470,1 54776U 22175U   23151.54100099  .00001739  00000-0  12728-3 0  9999,2 54776  53.2182 271.9276 0001101  75.3824 284.7291 15.08845451 26976,6917.864,95.437,540.49,538.967,0.0
54776.0,STARLINK-5470,PAYLOAD,2023-05-31 17:45:11,15.08851895,0.0001098,53.2183,271.0314,106.8221,253.2891,0.00014746,2.061e-05,0.0,0 STARLINK-5470,1 54776U 22175U   23151.73971555  .00002061  00000-0  14746-3 0  9994,2 54776  53.2183 271.0314 0001098 106.8221 253.2891 15.08851895 24847,6917.844,95.437,540.469,538.949,0.0
54776.0,STARLINK-5470,PAYLOAD,2023-06-01 14:25:12,15.0884227,0.0001098,53.2181,267.163,114.0027,246.1081,8.5295e-06,-1.52e-06,0.0,0 STARLINK-5470,1 54776U 22175U   23152.60083920 -.00000152  00000-0  85295-5 0  9990,2 54776  53.2181 267.1630 0001098 114.0027 246.1081 15.08842270 24970,6917.873,95.437,540.498,538.979,0.0
